DEMO8 (TENZING)         
1 48951U 21059CA  26068.50149399  .00022523  00000+0  38915-3 0  9998
2 48951  97.7052 254.6062 0007009 356.8203   3.3002 15.50975268261833
ICEYE-X34               
1 58294U 23174AQ  26068.76730399  .00058207  00000+0  95842-3 0  9993
2 58294  97.3917 156.1967 0004710 163.6411 196.4994 15.52138651130266
