[{"OBJECT_NAME":"DEMO8 (TENZING)","OBJECT_ID":"2021-059CA","EPOCH":"2026-03-09T12:02:09.080736","MEAN_MOTION":15.50975268,"ECCENTRICITY":0.00070099,"INCLINATION":97.7052,"RA_OF_ASC_NODE":254.6062,"ARG_OF_PERICENTER":356.8203,"MEAN_ANOMALY":3.3002,"EPHEMERIS_TYPE":0,"CLASSIFICATION_TYPE":"U","NORAD_CAT_ID":48951,"ELEMENT_SET_NO":999,"REV_AT_EPOCH":26183,"BSTAR":0.00038914706,"MEAN_MOTION_DOT":0.00022523,"MEAN_MOTION_DDOT":0},{"OBJECT_NAME":"ICEYE-X34","OBJECT_ID":"2023-174AQ","EPOCH":"2026-03-09T18:24:55.065600","MEAN_MOTION":15.52138651,"ECCENTRICITY":0.00047103,"INCLINATION":97.3917,"RA_OF_ASC_NODE":156.1967,"ARG_OF_PERICENTER":163.6411,"MEAN_ANOMALY":196.4994,"EPHEMERIS_TYPE":0,"CLASSIFICATION_TYPE":"U","NORAD_CAT_ID":58294,"ELEMENT_SET_NO":999,"REV_AT_EPOCH":13026,"BSTAR":0.00095842398,"MEAN_MOTION_DOT":0.00058207,"MEAN_MOTION_DDOT":0}]
